{
    "links": {
        "self": "http://www.neowsapp.com/rest/v1/neo/3591409?api_key=iIulBulltgU6a56xZRHN4H3l9WmuAYTsLGpBGhQ2"
    },
    "id": "3591409",
    "neo_reference_id": "3591409",
    "name": "(2011 YC)",
    "designation": "2011 YC",
    "nasa_jpl_url": "http://ssd.jpl.nasa.gov/sbdb.cgi?sstr=3591409",
    "absolute_magnitude_h": 24.6,
    "estimated_diameter": {
        "kilometers": {
            "estimated_diameter_min": 0.0319561887,
            "estimated_diameter_max": 0.0714562102
        },
        "meters": {
            "estimated_diameter_min": 31.9561886721,
            "estimated_diameter_max": 71.4562101727
        },
        "miles": {
            "estimated_diameter_min": 0.0198566489,
            "estimated_diameter_max": 0.0444008168
        },
        "feet": {
            "estimated_diameter_min": 104.8431420431,
            "estimated_diameter_max": 234.436392583
        }
    },
    "is_potentially_hazardous_asteroid": false,
    "close_approach_data": [
        {
            "close_approach_date": "1908-12-18",
            "close_approach_date_full": "1908-Dec-18 01:02",
            "epoch_date_close_approach": -1926197880000,
            "relative_velocity": {
                "kilometers_per_second": "8.7964120658",
                "kilometers_per_hour": "31667.0834369416",
                "miles_per_hour": "19676.6941500263"
            },
            "miss_distance": {
                "astronomical": "0.0808250676",
                "lunar": "31.4409512964",
                "kilometers": "12091257.955566012",
                "miles": "7513159.3037624856"
            },
            "orbiting_body": "Earth"
        },
        {
            "close_approach_date": "2011-12-14",
            "close_approach_date_full": "2011-Dec-14 20:19",
            "epoch_date_close_approach": 1323893940000,
            "relative_velocity": {
                "kilometers_per_second": "8.688204608",
                "kilometers_per_hour": "31277.536588956",
                "miles_per_hour": "19434.6448877321"
            },
            "miss_distance": {
                "astronomical": "0.0798711578",
                "lunar": "31.0698803842",
                "kilometers": "11948555.081313886",
                "miles": "7424487.8494521868"
            },
            "orbiting_body": "Earth"
        }
    ],
    "orbital_data": {
        "orbit_id": "11",
        "orbit_determination_date": "2017-04-06 08:51:44",
        "first_observation_date": "2011-12-16",
        "last_observation_date": "2011-12-26",
        "data_arc_in_days": 10,
        "observations_used": 40,
        "orbit_uncertainty": "8",
        "minimum_orbit_intersection": ".0729654",
        "jupiter_tisserand_invariant": "4.109",
        "epoch_osculation": "2455914.5",
        "eccentricity": ".3734534105555372",
        "semi_major_axis": "1.686947513805377",
        "inclination": "14.04110683828261",
        "ascending_node_longitude": "85.23113105330656",
        "orbital_period": "800.296251455232",
        "perihelion_distance": "1.056951211346575",
        "perihelion_argument": "357.9635084464949",
        "aphelion_distance": "2.31694381626418",
        "perihelion_time": "2455909.467272372939",
        "mean_anomaly": "2.263889081633803",
        "mean_motion": ".4498334202433011",
        "equinox": "J2000",
        "orbit_class": {
            "orbit_class_type": "AMO",
            "orbit_class_description": "Near-Earth asteroid orbits similar to that of 1221 Amor",
            "orbit_class_range": "1.017 AU < q (perihelion) < 1.3 AU"
        }
    },
    "is_sentry_object": false
}